{
"type": "FeatureCollection",
"name": "addresses",
"crs": { "type": "name", "properties": { "name": "urn:ogc:def:crs:OGC:1.3:CRS84" } },
"features": [
{ "type": "Feature", "properties": { "osm_id": 9169003004, "addr:housenumber": "166", "amenity": null, "addr:housename": null, "name": null, "addr:city": "Dublin", "addr:street": "Church Road", "cuisine": null }, "geometry": { "type": "Point", "coordinates": [ -6.2378301, 53.3528449 ] } },
{ "type": "Feature", "properties": { "osm_id": 9169003003, "addr:housenumber": "165", "amenity": null, "addr:housename": null, "name": null, "addr:city": "Dublin", "addr:street": "Church Road", "cuisine": null }, "geometry": { "type": "Point", "coordinates": [ -6.2377681, 53.3529019 ] } },
{ "type": "Feature", "properties": { "osm_id": 1343668159, "addr:housenumber": null, "amenity": "cafe", "addr:housename": "Sean O'Casey Community Centre", "name": "Sean O'Casey Community Centre Caf√©", "addr:city": "Dublin", "addr:street": "Saint Mary's Road North", "cuisine": "coffee_shop" }, "geometry": { "type": "Point", "coordinates": [ -6.2341205, 53.35297 ] } },
{ "type": "Feature", "properties": { "osm_id": 3199845853, "addr:housenumber": "8", "amenity": null, "addr:housename": null, "name": null, "addr:city": null, "addr:street": "Caledon Court", "cuisine": null }, "geometry": { "type": "Point", "coordinates": [ -6.2323708, 53.3534318 ] } }
]
}
